#dP2023  3 15 18  0  0.00000000      96 __u+U ITR00 EXT  IAC
## 2253 324000.00000000   900.00000000 60018 0.7500000000000
+  120   C06C07C08C09C10C11C12C13C14C16C19C20C21C22C23C24C25
+        C26C27C28C29C30C32C33C34C35C36C37C38C39C40C41C42C43
+        C44C45C46E01E02E03E04E05E07E08E09E10E11E12E13E14E15
+        E18E19E21E24E25E26E27E30E31E33E34E36G01G02G03G04G05
+        G06G07G08G09G10G11G12G13G14G15G16G17G18G19G20G21G22
+        G23G24G25G26G27G28G29G30G31G32J02J03J04R01R02R03R04
+        R05R07R08R09R11R12R13R14R15R16R17R18R19R20R21R22R24
+        R25  0  0  0  0  0  0  0  0  0  0  0  0  0  0  0  0
++         0  0  0  0  0  0  0  0  0  0  0  0  0  0  0  0  0
++         0  0  0  0  0  0  0  0  0  0  0  0  0  0  0  0  0
++         0  0  0  0  0  0  0  0  0  0  0  0  0  0  0  0  0
++         0  0  0  0  0  0  0  0  0  0  0  0  0  0  0  0  0
++         0  0  0  0  0  0  0  0  0  0  0  0  0  0  0  0  0
++         0  0  0  0  0  0  0  0  0  0  0  0  0  0  0  0  0
++         0  0  0  0  0  0  0  0  0  0  0  0  0  0  0  0  0
++         0  0  0  0  0  0  0  0  0  0  0  0  0  0  0  0  0
%c M  cc GPS ccc cccc cccc cccc cccc ccccc ccccc ccccc ccccc
%c cc cc ccc ccc cccc cccc cccc cccc ccccc ccccc ccccc ccccc
%f  0.0000000  0.000000000  0.00000000000  0.000000000000000
%f  0.0000000  0.000000000  0.00000000000  0.000000000000000
%i    0    0    0    0      0      0      0      0         0
%i    0    0    0    0      0      0      0      0         0
/* IAC                                ULTRA-RAPID PREDICTION
/* S/V CLOCKS ARE ALIGNED TO GNSS TIME                      
/* G:C1WC2W R:C1PC2P E:C1XC5X C:C2IC6I J:C1CC2S             
/* PCV:IGS20_2247 OL/AL:FES2004  NONE     YN ORB:CoN CLK:CoN
*  2023 03 16  8 15  0.00000000
PC06  -2055.118800  32122.770064 -27074.718741   -196.024067
PC07 -15669.679137  27267.031946  28056.076763    -27.691106
PC08 -14891.461564  39291.428074  -4493.541318    518.218281
PC09   5250.028992  36264.992684 -19968.837535    876.176506
PC10  -6793.261355  28014.110370  30952.026647    -10.336946
PC11  21602.894587  15879.158904  -7700.656520    708.636602
PC12  12585.385063  22847.643645   9952.628428    509.628015
PC13 -10062.788536  39839.679589  -9878.089075    230.626351
PC14  23258.832488   4362.929133 -14812.308738     -1.172872
PC16  -3465.176430  30464.790939 -28589.769666    137.187530
PC19 -26988.765064   2417.281057   6655.577157   -896.086137
PC20 -17155.513804  -9496.242349  19862.868202    676.990550
PC21  -3827.026098  16589.679148 -22083.757787   -908.785896
PC22 -21720.548042  13519.881478 -11105.888694   -583.652553
PC23  15142.789909 -19457.431515  13063.765578   -888.983245
PC24   8168.374816  19567.792875  18136.788171   -289.236079
PC25  16828.783313  -1547.677168  22191.350082     88.566264
PC26  -3401.635553  27322.263073   4644.246327    -92.555767
PC27  -5205.590266 -21912.490686 -16509.573638    111.262175
PC28  10902.981332 -11617.946267 -22908.316250     81.517196
PC29 -22232.482424  -6146.765800  15703.900993     94.145466
PC30 -19449.810729 -19985.817428  -1371.924749      0.842324
PC32   3794.730983 -16665.300366  22083.714012   -598.711541
PC33  26981.232762  -2558.755659  -6678.769736   -870.961924
PC34  20036.920995  19401.919663    105.735320    127.598108
PC35 -11460.038784  11164.551649  22853.322470    663.621468
PC36 -16735.007425    375.754573 -22312.552021   -561.706643
PC37   4951.511875 -27241.321452  -3374.173009   -802.236596
PC38 -18747.474447  37608.638351   4284.782546     65.300758
PC39  -7820.659543  26155.066675 -32033.712141     -2.188483
PC40 -21504.245771  20818.994530  29586.530007    -17.681423
PC41  22088.247174 -13407.673833  10608.523367   -729.485953
PC42  16048.679987  10192.911987 -20386.331034   -784.917139
PC43  22446.517880   6847.154987 -15090.087993     11.986252
PC44   5744.847297  21694.177998  16549.083107     45.786979
PC45 -14947.157405  19824.031158 -12771.568746    -72.784607
PC46  -9158.095904 -18083.491824 -19170.216264    -40.191311
PE01 -17072.475655  22969.559895   7571.931888    -15.680541
PE02  16708.383976 -23064.340193  -8034.398628     26.613056
PE03   8992.190707 -14877.467740  23960.942984   -659.639049
PE04  12599.211642  18193.994803 -19645.680115    -79.453143
PE05  25798.707624  -2717.714955  14262.606271    -86.010406
PE07 -27226.734862 -10966.203964   3805.689162    -30.235693
PE08 -12446.041509 -18084.086119  19856.018607    -51.873199
PE09  27201.873855  10987.417737  -3977.460736   -870.607613
PE10  13258.794027  23945.155768 -11270.580996   -519.426601
PE11  16519.650748  14972.035971 -19467.261592   1262.323521
PE12   8160.815806  28360.470500  -2110.773111   -460.070694
PE13 -16335.116111 -15831.004490  18951.997470    -17.753457
PE14 -22862.707925  -7040.077081   3023.213707    169.727869
PE15  -8011.134617 -28448.895707   1771.426230     -7.784055
PE18  29619.161268   1619.776934 -12697.126126   -277.873832
PE19 -11828.986379  13483.216718 -23536.611323  -2997.423083
PE21 -24379.829445  13736.509549  -9668.528509   -517.785166
PE24  17933.866932   4962.487017  22993.886160  -1167.825974
PE25  24393.342942 -13480.853744   9954.400486   -601.412159
PE26 -14902.730997   6830.039782  24650.125611     46.884582
PE27 -18474.122477  -4098.428427 -22769.219010   -535.954457
PE30      0.000000      0.000000      0.000000  -1321.113542
PE31   1734.115842  19355.425964  22330.461200   -518.677600
PE33  -4995.652543  24163.809274  16342.634770   -449.098724
PE34   4844.797410 -24287.724175 -16216.046418    -35.152206
PE36  14988.147492  -5925.522412 -24824.825153    -26.918779
PG01 -13803.863898   4606.104990  21875.359961    202.308764
PG02  12282.096451  -9761.689508 -20850.614924   -613.972472
PG03 -22328.120081  11613.089936   8177.724730   -348.911257
PG04 -22098.449653   2135.947478 -14652.436092     -5.948452
PG05  17974.803394   1948.275839 -19665.040348   -119.660712
PG06   5235.233999  25953.431846  -1200.836784    581.583839
PG07  -8376.341884  18761.814062 -16117.035733    222.086323
PG08 -25848.683883  -6014.373563   3482.563689   -113.170169
PG09 -13186.235699  10800.283468 -20452.607807   -199.666325
PG10   5443.759638 -19659.397393  17014.641746    -28.756278
PG11  12186.181155  19011.583766 -14000.227863   -131.874058
PG12  23046.451126  -8596.417682   9612.850385   -352.122479
PG13  22838.342190  13634.530579  -2104.203286    491.237096
PG14  -8615.481893  20268.332221  14755.571022     -2.605239
PG15  26265.830347   3076.848471   3264.377252     21.996336
PG16 -16176.293875  -6056.091341 -20600.065832   -515.122413
PG17    971.463434  16230.264725  21413.814076    705.733115
PG18   5971.879102 -21846.205732 -13755.055014   -181.814501
PG19  11777.121057  17708.109755  15856.126698    290.694565
PG20  10737.533592  11255.271198 -21502.651966    444.724971
PG21 -16489.725435  -4890.365610  21012.412218    154.324183
PG22 -14515.057461 -17552.638519  14242.326909    446.154156
PG23  15388.892015 -20329.243965   7169.648363     10.900827
PG24  15934.335709   -341.330986  20933.413361   -113.679194
PG25  20298.674446 -16865.422972    702.992762    428.071838
PG26  -5517.215062 -15857.062322 -20629.374922    241.964799
PG27 -22233.470678 -13205.738066  -7200.589235     80.019114
PG28  -5106.217077 -26056.803963    732.797872     44.253685
PG29  16901.257006  -6758.904867 -19419.492008   -591.062886
PG30    -85.941461  25722.918018  -5932.458998   -526.702284
PG31  -7407.311462 -24810.612496  -4930.491463   -211.711713
PG32  -5137.272700 -16781.559141  20166.388696   -424.831882
PJ02 -29744.624856  29954.706216   5266.035235     -1.210093
PJ03 -25774.247816  23213.078736  29045.564508      1.010154
PJ04 -33470.393269  22676.194210  -7026.951474     94.148188
PR01   2515.708330 -11206.020511  22784.672611     24.836645
PR02 -16825.162642  -7292.139821  17812.368510    -23.138697
PR03 -25414.960615    679.675720   2469.040289     74.259622
PR04 -19828.129829   7835.199324 -13979.456382    179.570185
PR05  -3520.085967  10858.857999 -22796.414512    109.378278
PR07  25411.455466  -1109.712319  -1497.743007     51.842884
PR08  19567.527046  -8138.017584  14238.419996    -69.928813
PR09   5697.155065  12934.447276  21229.409532    109.407283
PR11  14019.810080 -18776.829742  10099.396672    -19.194011
PR12   6292.520558 -23073.338216  -8826.369234     25.686048
PR13  -4212.768161 -14470.041258 -20598.747718    -33.022915
PR14 -13451.290966   4428.002958 -21206.592312     24.428771
PR15 -14014.277736  19324.588741  -8975.980936     90.417743
PR16  -6338.430452  23164.904259   8554.637010     12.418678
PR17 -15526.294490  -7981.933202  18592.402067    612.954774
PR18  -7430.624602   7645.044927  23184.274331     71.693572
PR19   2999.555691  19000.869840  16749.069759   -225.493212
PR20  14261.697216  20950.466123  -2643.531711    -89.454214
PR21  14942.379362   6602.184315 -19597.800457   -380.714373
PR22   7436.094411  -8467.840959 -22859.104762     75.109151
PR24 -15208.707344 -20210.335036   3297.880681    154.095991
PR25  15418.314566   8853.687223 -18292.386518     57.884944
EOF
